STARLINK-1277
1 45369U 20019K   26090.91671296  .00125529  00000+0  19708-2 0  9997
2 45369  53.0499  45.8373 0006134  95.6619 196.8841 15.52751351  5950
STARLINK-1304
1 45376U 20019S   26090.11663228  .00119864  00000+0  19458-2 0  9990
2 45376  53.0493  46.6755 0003634  78.3105 281.8312 15.51856974333290
STARLINK-1307
1 45397U 20019AP  26090.91671296 -.00042834  00000+0 -68916-3 0  9993
2 45397  53.0556  23.9796 0002094  88.6149 266.8894 15.52272089  5965
STARLINK-1286
1 45417U 20019BK  26090.82717052  .00050543  00000+0  81002-3 0  9992
2 45417  53.0497  24.2191 0003698 118.3774 241.7608 15.52608345333665
STARLINK-1321
1 45573U 20025AU  26090.87079338  .00074618  00000+0  12096-2 0  9990
2 45573  53.0482 312.0073 0003619 152.5670 207.5530 15.52121484328906
STARLINK-1331
1 45578U 20025AZ  26090.87954868  .00099492  00000+0  16091-2 0  9991
2 45578  53.0522 318.6649 0005168 172.7374 187.3710 15.52048877329127
STARLINK-1496
1 45780U 20038BC  26090.37166174  .00099877  00000+0  16334-2 0  9997
2 45780  53.0501  73.7865 0001181 346.4861  13.6116 15.51747756320370
STARLINK-1641
1 46174U 20057BK  26090.68553788  .00047759  00000+0  77622-3 0  9991
2 46174  53.0492 179.2366 0003217  13.5532 346.5563 15.52243389309920
STARLINK-1888
1 47171U 20088BB  26090.49389794  .00106765  00000+0  16991-2 0  9990
2 47171  53.0513 174.8150 0003069 322.1965  37.8828 15.52471805295539
